line1,line2,classification,launch_year,launch_number,launch_piece,epoch_year,epoch_day,mean_motion_dot,mean_motion_ddot,bstar,ephemeris_type,element_number,satellite_number,inclination,ra_of_asc_node,eccentricity,arg_of_perigee,mean_anomaly,mean_motion,rev_at_epoch,datetime,x,y,z,cartesian_cords,NORAD_CAT_ID,OBJECT_TYPE,SATNAME,SITE,Operator/Owner,Users,Purpose,anom_inclination,anom_ra_of_asc_node,anom_eccentricity,anom_arg_of_perigee,anom_mean_anomaly,anom_mean_motion,anom_count
1   877U 64053B   22001.51467297  .00000035  00000-0  32022-4 0  9997,2   877  65.0778 123.4067 0068174 193.4116 166.5174 14.59464464 43656,U,64,053,B,22,1.51467297,3.5e-07,0.0,0.0,0,999,877,65.0778,123.4067,0.0068174,193.4116,166.5174,14.59464464,4365,2022-01-01 12:21:07.744608,-3891.887969375469,5964.514498726616,8.12516433166732,[-3891.88796938  5964.51449873     8.12516433],877,ROCKET BODY,SL-3 R/B,TTMTR,0,0,0,0.0,0.0,0.0,0.0,0.0,0.0,0.0
1 00877U 64053B   21365.69239102  .00000044  00000-0  33923-4 0  9991,2 00877  65.0778 125.8100 0068266 193.7164 166.2083 14.59464142 43534,U,64,053,B,21,365.69239102,4.4e-07,0.0,0.0,0,999,877,65.0778,125.81,0.0068266,193.7164,166.2083,14.59464142,4353,2021-12-31 16:37:02.584128,-4138.580895605648,5796.069199836728,8.646714564507482,[-4138.58089561  5796.06919984     8.64671456],877,ROCKET BODY,SL-3 R/B,TTMTR,0,0,0,0.0,0.0,0.0,0.0,0.0,0.0,0.0
1 00877U 64053B   21365.62386751  .00000045  00000-0  34168-4 0  9990,2 00877  65.0778 126.0103 0068276 193.7413 166.1830 14.59464122 43524,U,64,053,B,21,365.62386751,4.5e-07,0.0,0.0,0,999,877,65.0778,126.0103,0.0068276,193.7413,166.183,14.59464122,4352,2021-12-31 14:58:22.152864,-4158.817681118139,5781.568318705106,8.684990257501365,[-4158.81768112  5781.56831871     8.68499026],877,ROCKET BODY,SL-3 R/B,TTMTR,0,0,0,0.0,0.0,0.0,0.0,0.0,0.0,0.0
1 00877U 64053B   21364.80158537  .00000077  00000-0  40650-4 0  9996,2 00877  65.0777 128.4135 0068376 194.0402 165.8799 14.59463908 43405,U,64,053,B,21,364.80158537,7.7e-07,0.0,0.0,0,999,877,65.0777,128.4135,0.0068376,194.0402,165.8799,14.59463908,4340,2021-12-30 19:14:16.975968,-4397.599567260029,5602.100169529839,9.195459891039405,[-4397.59956726  5602.10016953     9.19545989],877,ROCKET BODY,SL-3 R/B,TTMTR,0,0,0,0.0,0.0,0.0,0.0,0.0,0.0,0.0
1 00877U 64053B   21364.52749129  .00000078  00000-0  40828-4 0  9996,2 00877  65.0777 129.2146 0068412 194.1339 165.7848 14.59463800 43367,U,64,053,B,21,364.52749129,7.8e-07,0.0,0.0,0,999,877,65.0777,129.2146,0.0068412,194.1339,165.7848,14.594638,4336,2021-12-30 12:39:35.247456,-4475.497122767555,5540.073248981649,9.354213960859033,[-4475.49712277  5540.07324898     9.35421396],877,ROCKET BODY,SL-3 R/B,TTMTR,0,0,0,0.0,0.0,0.0,0.0,0.0,0.0,0.0
1   877U 64053B   21363.77373250  .00000115  00000-0  48301-4 0  9996,2   877  65.0776 131.4175 0068493 194.4097 165.5051 14.59463590 43254,U,64,053,B,21,363.7737325,1.15e-06,0.0,0.0,0,999,877,65.0776,131.4175,0.0068493,194.4097,165.5051,14.5946359,4325,2021-12-29 18:34:10.488000,-4685.142310630761,5363.944092882941,9.797527292310642,[-4685.14231063  5363.94409288     9.79752729],877,ROCKET BODY,SL-3 R/B,TTMTR,0,0,0,0.0,0.0,0.0,0.0,0.0,0.0,0.0
1 00877U 64053B   21363.56816188  .00000113  00000-0  47879-4 0  9992,2 00877  65.0775 132.0183 0068522 194.4965 165.4171 14.59463469 43220,U,64,053,B,21,363.56816188,1.13e-06,0.0,0.0,0,999,877,65.0775,132.0183,0.0068522,194.4965,165.4171,14.59463469,4322,2021-12-29 13:38:09.186432,-4741.132994172326,5314.521244965988,9.92029546837772,[-4741.13299417  5314.52124497     9.92029547],877,ROCKET BODY,SL-3 R/B,TTMTR,0,0,0,0.0,0.0,0.0,0.0,0.0,0.0,0.0
1   877U 64053B   21362.74587930  .00000131  00000-0  51572-4 0  9996,2   877  65.0774 134.4215 0068613 194.7970 165.1123 14.59463119 43104,U,64,053,B,21,362.7458793,1.31e-06,0.0,0.0,0,999,877,65.0774,134.4215,0.0068613,194.797,165.1123,14.59463119,4310,2021-12-28 17:54:03.971520,-4959.808863984315,5111.041571663156,10.37960756951312,[-4959.80886398  5111.04157166    10.37960757],877,ROCKET BODY,SL-3 R/B,TTMTR,0,0,0,0.0,0.0,0.0,0.0,0.0,0.0,0.0
1 00877U 64053B   21362.60883216  .00000134  00000-0  52270-4 0  9996,2 00877  65.0774 134.8220 0068632 194.8394 165.0693 14.59463082 43083,U,64,053,B,21,362.60883216,1.34e-06,0.0,0.0,0,999,877,65.0774,134.822,0.0068632,194.8394,165.0693,14.59463082,4308,2021-12-28 14:36:43.098624,-4995.417650787979,5076.249193450302,10.457360737404786,[-4995.41765079  5076.24919345    10.45736074],877,ROCKET BODY,SL-3 R/B,TTMTR,0,0,0,0.0,0.0,0.0,0.0,0.0,0.0,0.0
1   877U 64053B   21361.71802586  .00000125  00000-0  50390-4 0  9999,2   877  65.0773 137.4254 0068731 195.1604 164.7437 14.59462513 42951,U,64,053,B,21,361.71802586,1.25e-06,0.0,0.0,0,999,877,65.0773,137.4254,0.0068731,195.1604,164.7437,14.59462513,4295,2021-12-27 17:13:57.434304,-5220.836701770468,4844.1033247482665,10.932174769081042,[-5220.83670177  4844.10332475    10.93217477],877,ROCKET BODY,SL-3 R/B,TTMTR,0,0,0,0.0,0.0,0.0,0.0,0.0,0.0,0.0
1 00877U 64053B   21361.58097866  .00000125  00000-0  50449-4 0  9996,2 00877  65.0772 137.8260 0068752 195.2089 164.6945 14.59462460 42934,U,64,053,B,21,361.58097866,1.25e-06,0.0,0.0,0,999,877,65.0772,137.826,0.0068752,195.2089,164.6945,14.5946246,4293,2021-12-27 13:56:36.556224,-5254.581128552993,4807.483789844307,11.00486712702143,[-5254.58112855  4807.48378984    11.00486713],877,ROCKET BODY,SL-3 R/B,TTMTR,0,0,0,0.0,0.0,0.0,0.0,0.0,0.0,0.0
1 00877U 64053B   21360.75869555  .00000118  00000-0  48942-4 0  9993,2 00877  65.0771 140.2292 0068840 195.5093 164.3898 14.59461974 42812,U,64,053,B,21,360.75869555,1.18e-06,0.0,0.0,0,999,877,65.0771,140.2292,0.006884,195.5093,164.3898,14.59461974,4281,2021-12-26 18:12:31.295520,-5451.540513309912,4582.9169956757105,11.420083099330538,[-5451.54051331  4582.91699568    11.4200831 ],877,ROCKET BODY,SL-3 R/B,TTMTR,0,0,0,0.0,0.0,0.0,0.0,0.0,0.0,0.0
1 00877U 64053B   21360.62164829  .00000121  00000-0  49580-4 0  9994,2 00877  65.0771 140.6297 0068860 195.5590 164.3394 14.59461934 42799,U,64,053,B,21,360.62164829,1.21e-06,0.0,0.0,0,999,877,65.0771,140.6297,0.006886,195.559,164.3394,14.59461934,4279,2021-12-26 14:55:10.412256,-5483.444839850662,4544.698778695086,11.490740251933651,[-5483.44483985  4544.6987787     11.49074025],877,ROCKET BODY,SL-3 R/B,TTMTR,0,0,0,0.0,0.0,0.0,0.0,0.0,0.0,0.0
1   877U 64053B   21360.48460106  .00000120  00000-0  49462-4 0  9993,2   877  65.0770 141.0302 0068877 195.6084 164.2893 14.59461877 42774,U,64,053,B,21,360.48460106,1.2e-06,0.0,0.0,0,999,877,65.077,141.0302,0.0068877,195.6084,164.2893,14.59461877,4277,2021-12-26 11:37:49.531584,-5515.0792386973,4506.2578046367735,11.559199937102832,[-5515.0792387   4506.25780464    11.55919994],877,ROCKET BODY,SL-3 R/B,TTMTR,0,0,0,0.0,0.0,0.0,0.0,0.0,0.0,0.0
1 00877U 64053B   21359.79936488  .00000122  00000-0  49888-4 0  9990,2 00877  65.0770 143.0330 0068952 195.8510 164.0432 14.59461530 42679,U,64,053,B,21,359.79936488,1.22e-06,0.0,0.0,0,999,877,65.077,143.033,0.0068952,195.851,164.0432,14.5946153,4267,2021-12-25 19:11:05.125632,-5669.193588764825,4310.758130664803,11.883416276090745,[-5669.19358876  4310.75813066    11.88341628],877,ROCKET BODY,SL-3 R/B,TTMTR,0,0,0,0.0,0.0,0.0,0.0,0.0,0.0,0.0
1 00877U 64053B   21359.59379393  .00000122  00000-0  49695-4 0  9990,2 00877  65.0770 143.6338 0068981 195.9274 163.9657 14.59461450 42648,U,64,053,B,21,359.59379393,1.22e-06,0.0,0.0,0,999,877,65.077,143.6338,0.0068981,195.9274,163.9657,14.5946145,4264,2021-12-25 14:15:03.795552,-5714.085820653091,4251.075369331923,11.980019660641783,[-5714.08582065  4251.07536933    11.98001966],877,ROCKET BODY,SL-3 R/B,TTMTR,0,0,0,0.0,0.0,0.0,0.0,0.0,0.0,0.0
1 00877U 64053B   21358.84003389  .00000095  00000-0  44306-4 0  9999,2 00877  65.0769 145.8368 0069060 196.1966 163.6927 14.59460938 42538,U,64,053,B,21,358.84003389,9.5e-07,0.0,0.0,0,999,877,65.0769,145.8368,0.006906,196.1966,163.6927,14.59460938,4253,2021-12-24 20:09:38.928096,-5873.270062814523,4028.2734644191046,12.32310323900282,[-5873.27006281  4028.27346442    12.32310324],877,ROCKET BODY,SL-3 R/B,TTMTR,0,0,0,0.0,0.0,0.0,0.0,0.0,0.0,0.0
1 00877U 64053B   21358.56593922  .00000108  00000-0  47015-4 0  9990,2 00877  65.0769 146.6379 0069094 196.3011 163.5867 14.59460919 42495,U,64,053,B,21,358.56593922,1.08e-06,0.0,0.0,0,999,877,65.0769,146.6379,0.0069094,196.3011,163.5867,14.59460919,4249,2021-12-24 13:34:57.148608,-5929.0157791494175,3945.7609259880883,12.442015208816162,[-5929.01577915  3945.76092599    12.44201521],877,ROCKET BODY,SL-3 R/B,TTMTR,0,0,0,0.0,0.0,0.0,0.0,0.0,0.0,0.0
1   877U 64053B   21358.49741555  .00000112  00000-0  47692-4 0  9995,2   877  65.0768 146.8382 0069102 196.3254 163.5620 14.59460913 42489,U,64,053,B,21,358.49741555,1.12e-06,0.0,0.0,0,999,877,65.0768,146.8382,0.0069102,196.3254,163.562,14.59460913,4248,2021-12-24 11:56:16.703520,-5942.771824383537,3925.011304085553,12.465624223589087,[-5942.77182438  3925.01130409    12.46562422],877,ROCKET BODY,SL-3 R/B,TTMTR,0,0,0,0.0,0.0,0.0,0.0,0.0,0.0,0.0
1 00877U 64053B   21357.88070251  .00000088  00000-0  42834-4 0  9990,2 00877  65.0767 148.6405 0069169 196.5544 163.3297 14.59460508 42399,U,64,053,B,21,357.88070251,8.8e-07,0.0,0.0,0,999,877,65.0767,148.6405,0.0069169,196.5544,163.3297,14.59460508,4239,2021-12-23 21:08:12.696864,-6063.269712027651,3736.158066114503,12.718628588959522,[-6063.26971203  3736.15806611    12.71862859],877,ROCKET BODY,SL-3 R/B,TTMTR,0,0,0,0.0,0.0,0.0,0.0,0.0,0.0,0.0
1 00877U 64053B   21357.60660775  .00000097  00000-0  44772-4 0  9999,2 00877  65.0767 149.4417 0069208 196.6672 163.2153 14.59460472 42354,U,64,053,B,21,357.60660775,9.7e-07,0.0,0.0,0,999,877,65.0767,149.4417,0.0069208,196.6672,163.2153,14.59460472,4235,2021-12-23 14:33:30.909600,-6114.920374228506,3651.006111437327,12.831964273978015,[-6114.92037423  3651.00611144    12.83196427],877,ROCKET BODY,SL-3 R/B,TTMTR,0,0,0,0.0,0.0,0.0,0.0,0.0,0.0,0.0
